NORAD_CAT_ID,OBJECT_NAME,OBJECT_TYPE,EPOCH,MEAN_MOTION,ECCENTRICITY,INCLINATION,RA_OF_ASC_NODE,ARG_OF_PERICENTER,MEAN_ANOMALY,BSTAR,MEAN_MOTION_DOT,MEAN_MOTION_DDOT,TLE_LINE0,TLE_LINE1,TLE_LINE2,SEMIMAJOR_AXIS,PERIOD,APOGEE,PERIGEE,DECAYED
49742.0,STARLINK-3202,PAYLOAD,2022-11-09 12:42:26,15.08839774,0.000286,53.2151,208.6801,30.5502,329.5657,-0.00015815,-2.805e-05,0.0,0 STARLINK-3202,1 49742U 21115U   22313.52947477 -.00002805  00000-0 -15815-3 0  9992,2 49742  53.2151 208.6801 0002860  30.5502 329.5657 15.08839774 51938,6917.880999999999,95.438,541.725,537.768,0.0
49742.0,STARLINK-3202,PAYLOAD,2022-11-09 20:39:22,15.08838416,0.0001939,53.2154,207.1896,45.1932,314.9217,-0.00022185,-3.817e-05,0.0,0 STARLINK-3202,1 49742U 21115U   22313.86067188 -.00003817  00000-0 -22185-3 0  9993,2 49742  53.2154 207.1896 0001939  45.1932 314.9217 15.08838416 53095,6917.885,95.438,541.092,538.409,0.0
49742.0,STARLINK-3202,PAYLOAD,2022-11-10 03:00:55,15.0882987,0.0002192,53.2154,206.0016,38.4809,321.6339,-0.00028626,-4.84e-05,0.0,0 STARLINK-3202,1 49742U 21115U   22314.12564250 -.00004840  00000-0 -28626-3 0  9998,2 49742  53.2154 206.0016 0002192  38.4809 321.6339 15.08829870 53136,6917.911,95.438,541.293,538.26,0.0
49742.0,STARLINK-3202,PAYLOAD,2022-11-10 20:30:11,15.08813881,0.0002132,53.2156,202.7307,37.1591,322.9549,-0.00021448,-3.698e-05,0.0,0 STARLINK-3202,1 49742U 21115U   22314.85429711 -.00003698  00000-0 -21448-3 0  9995,2 49742  53.2156 202.7307 0002132  37.1591 322.9549 15.08813881 52133,6917.96,95.439,541.3,538.35,0.0
49742.0,STARLINK-3202,PAYLOAD,2022-11-10 23:40:58,15.08814499,0.0002014,53.2165,202.1359,37.4327,322.6805,-9.6115e-05,-1.816e-05,0.0,0 STARLINK-3202,1 49742U 21115U   22314.98678410 -.00001816  00000-0 -96115-4 0  9995,2 49742  53.2165 202.1359 0002014  37.4327 322.6805 15.08814499 53266,6917.958000000001,95.439,541.217,538.43,0.0
49742.0,STARLINK-3202,PAYLOAD,2022-11-11 09:13:16,15.08822647,0.0002134,53.2167,200.3514,38.4233,321.6911,3.6041e-05,2.85e-06,0.0,0 STARLINK-3202,1 49742U 21115U   22315.38422051  .00000285  00000-0  36041-4 0  9997,2 49742  53.2167 200.3514 0002134  38.4233 321.6911 15.08822647 52216,6917.933000000001,95.439,541.275,538.322,0.0
49742.0,STARLINK-3202,PAYLOAD,2022-11-11 12:24:02,15.08824048,0.0002154,53.2159,199.7566,36.0412,324.0725,7.7548e-05,9.46e-06,0.0,0 STARLINK-3202,1 49742U 21115U   22315.51670018  .00000946  00000-0  77548-4 0  9991,2 49742  53.2159 199.7566 0002154  36.0412 324.0725 15.08824048 53342,6917.929,95.439,541.284,538.304,0.0
49742.0,STARLINK-3202,PAYLOAD,2022-11-11 20:20:57,15.0884928,0.0002063,53.2162,198.2705,35.0187,325.094,-0.00011826,-2.17e-05,0.0,0 STARLINK-3202,1 49742U 21115U   22315.84789146 -.00002170  00000-0 -11826-3 0  9999,2 49742  53.2162 198.2705 0002063  35.0187 325.0940 15.08849280 53392,6917.852,95.437,541.144,538.29,0.0
49742.0,STARLINK-3202,PAYLOAD,2022-11-11 23:31:47,15.08759983,0.0002413,53.2161,197.6759,52.8623,307.2589,0.0013198,0.00020733,0.0,0 STARLINK-3202,1 49742U 21115U   22315.98040950  .00020733  00000-0  13198-2 0  9993,2 49742  53.2161 197.6759 0002413  52.8623 307.2589 15.08759983 53418,6918.125,95.443,541.659,538.321,0.0
49742.0,STARLINK-3202,PAYLOAD,2022-11-12 10:39:25,15.08848825,0.0002076,53.216,195.5939,37.88800000000001,322.2258,0.00026022,3.857e-05,0.0,0 STARLINK-3202,1 49742U 21115U   22316.44404721  .00003857  00000-0  26022-3 0  9994,2 49742  53.2160 195.5939 0002076  37.8880 322.2258 15.08848825 53488,6917.853,95.437,541.155,538.2819999999998,0.0
49742.0,STARLINK-3202,PAYLOAD,2022-11-12 21:47:07,15.08852589,0.0002168,53.2151,193.5129,36.8424,323.2717,0.0003625,5.488e-05,0.0,0 STARLINK-3202,1 49742U 21115U   22316.90772968  .00005488  00000-0  36250-3 0  9992,2 49742  53.2151 193.5129 0002168  36.8424 323.2717 15.08852589 52440,6917.842,95.437,541.207,538.207,0.0
49742.0,STARLINK-3202,PAYLOAD,2022-11-13 10:30:13,15.08844365,0.0002271,53.2145,191.1361,37.0972,323.0176,0.0001166,1.568e-05,0.0,0 STARLINK-3202,1 49742U 21115U   22317.43765115  .00001568  00000-0  11660-3 0  9990,2 49742  53.2145 191.1361 0002271  37.0972 323.0176 15.08844365 53633,6917.8669999999975,95.437,541.303,538.161,0.0
49742.0,STARLINK-3202,PAYLOAD,2022-11-13 18:27:09,15.08832104,0.0002116,53.2158,189.6475,39.4616,320.653,-2.2401e-05,-6.45e-06,0.0,0 STARLINK-3202,1 49742U 21115U   22317.76886290 -.00000645  00000-0 -22401-4 0  9997,2 49742  53.2158 189.6475 0002116  39.4616 320.6530 15.08832104 53684,6917.905,95.438,541.2330000000002,538.306,0.0
49742.0,STARLINK-3202,PAYLOAD,2022-11-14 08:45:37,15.08844985,0.0001779,53.2167,186.9694,48.276,311.8384,-5.756100000000003e-05,-1.204e-05,0.0,0 STARLINK-3202,1 49742U 21115U   22318.36501299 -.00001204  00000-0 -57561-4 0  9994,2 49742  53.2167 186.9694 0001779  48.2760 311.8384 15.08844985 53778,6917.865,95.437,540.961,538.499,0.0
49742.0,STARLINK-3202,PAYLOAD,2022-11-14 10:21:00,15.08850539,0.000194,53.2161,186.6727,40.9992,319.1145,-0.00011813,-2.168e-05,0.0,0 STARLINK-3202,1 49742U 21115U   22318.43125186 -.00002168  00000-0 -11813-3 0  9998,2 49742  53.2161 186.6727 0001940  40.9992 319.1145 15.08850539 52678,6917.848000000001,95.437,541.055,538.371,0.0
49742.0,STARLINK-3202,PAYLOAD,2022-11-14 16:42:32,15.08858189,0.0002213,53.2158,185.4842,36.6026,323.5117,-0.00011638,-2.141e-05,0.0,0 STARLINK-3202,1 49742U 21115U   22318.69620531 -.00002141  00000-0 -11638-3 0  9996,2 49742  53.2158 185.4842 0002213  36.6026 323.5117 15.08858189 52715,6917.825,95.436,541.221,538.159,0.0
49742.0,STARLINK-3202,PAYLOAD,2022-11-15 08:36:23,15.08843488,0.0002206,53.2157,182.5102,38.424,321.6909,-4.7531e-05,-1.045e-05,0.0,0 STARLINK-3202,1 49742U 21115U   22319.35860809 -.00001045  00000-0 -47531-4 0  9998,2 49742  53.2157 182.5102 0002206  38.4240 321.6909 15.08843488 52816,6917.87,95.437,541.261,538.2090000000002,0.0
49742.0,STARLINK-3202,PAYLOAD,2022-11-15 21:19:28,15.08837167,0.0002249,53.2157,180.1312,39.2012,320.9143,0.00011671,1.57e-05,0.0,0 STARLINK-3202,1 49742U 21115U   22319.88852784  .00001570  00000-0  11671-3 0  9995,2 49742  53.2157 180.1312 0002249  39.2012 320.9143 15.08837167 54008,6917.889,95.438,541.31,538.198,0.0
49742.0,STARLINK-3202,PAYLOAD,2022-11-16 00:30:14,15.0884046,0.0002255,53.2158,179.5362,39.895,320.2208,0.00010173,1.331e-05,0.0,0 STARLINK-3202,1 49742U 21115U   22320.02100629  .00001331  00000-0  10173-3 0  9998,2 49742  53.2158 179.5362 0002255  39.8950 320.2208 15.08840460 52913,6917.879,95.438,541.304,538.184,0.0
49742.0,STARLINK-3202,PAYLOAD,2022-11-16 21:10:16,15.08826227,0.0002138,53.2157,175.6702,40.3729,319.7422,0.00015043,2.106e-05,0.0,0 STARLINK-3202,1 49742U 21115U   22320.88213506  .00002106  00000-0  15043-3 0  9993,2 49742  53.2157 175.6702 0002138  40.3729 319.7422 15.08826227 54152,6917.922,95.438,541.2669999999998,538.308,0.0
49742.0,STARLINK-3202,PAYLOAD,2022-11-17 00:21:02,15.0883961,0.0002269,53.2157,175.0754,41.6939,318.4226,-3.0066e-05,-7.67e-06,0.0,0 STARLINK-3202,1 49742U 21115U   22321.01461068 -.00000767  00000-0 -30066-4 0  9993,2 49742  53.2157 175.0754 0002269  41.6939 318.4226 15.08839610 54175,6917.882,95.438,541.316,538.177,0.0
49742.0,STARLINK-3202,PAYLOAD,2022-11-17 17:50:16,15.0884176,0.0002292,53.216,171.8039,41.9549,318.1618,5.560100000000001e-05,5.97e-06,0.0,0 STARLINK-3202,1 49742U 21115U   22321.74324633  .00000597  00000-0  55601-4 0  9990,2 49742  53.2160 171.8039 0002292  41.9549 318.1618 15.08841760 53175,6917.875,95.437,541.326,538.154,0.0
49742.0,STARLINK-3202,PAYLOAD,2022-11-17 21:01:02,15.088451,0.0002311,53.216,171.2091,41.2361,318.8805,4.1067e-05,3.65e-06,0.0,0 STARLINK-3202,1 49742U 21115U   22321.87572410  .00000365  00000-0  41067-4 0  9996,2 49742  53.2160 171.2091 0002311  41.2361 318.8805 15.08845100 54307,6917.865,95.437,541.3290000000002,538.131,0.0
49742.0,STARLINK-3202,PAYLOAD,2022-11-18 16:05:41,15.08831489,0.000285,53.2161,167.6414,36.7436,323.3751,-2.3713e-06,-3.26e-06,0.0,0 STARLINK-3202,1 49742U 21115U   22322.67061813 -.00000326  00000-0 -23713-5 0  9993,2 49742  53.2161 167.6414 0002850  36.7436 323.3751 15.08831489 54425,6917.906,95.438,541.743,537.8,0.0
49742.0,STARLINK-3202,PAYLOAD,2022-11-19 09:34:55,15.08837507,0.0002213,53.2157,164.3698,43.8546,316.2621,2.445e-05,1.01e-06,0.0,0 STARLINK-3202,1 49742U 21115U   22323.39925412  .00000101  00000-0  24450-4 0  9994,2 49742  53.2157 164.3698 0002213  43.8546 316.2621 15.08837507 53425,6917.888000000001,95.438,541.284,538.222,0.0
49742.0,STARLINK-3202,PAYLOAD,2022-11-19 20:42:37,15.08843887,0.0002246,53.2157,162.2885,43.6531,316.4638,-1.7545999999999998e-05,-5.68e-06,0.0,0 STARLINK-3202,1 49742U 21115U   22323.86293163 -.00000568  00000-0 -17546-4 0  9994,2 49742  53.2157 162.2885 0002246  43.6531 316.4638 15.08843887 53493,6917.869000000002,95.437,541.2869999999998,538.18,0.0
49742.0,STARLINK-3202,PAYLOAD,2022-11-20 12:36:28,15.0884118,0.0002272,53.2157,159.3151,42.8999,317.217,9.574e-05,1.236e-05,0.0,0 STARLINK-3202,1 49742U 21115U   22324.52533028  .00001236  00000-0  95740-4 0  9998,2 49742  53.2157 159.3151 0002272  42.8999 317.2170 15.08841180 54703,6917.877,95.437,541.314,538.17,0.0
49742.0,STARLINK-3202,PAYLOAD,2022-11-20 20:33:24,15.08842143,0.0002346,53.2157,157.8286,42.1168,318.0004,9.4124e-05,1.21e-05,0.0,0 STARLINK-3202,1 49742U 21115U   22324.85652924  .00001210  00000-0  94124-4 0  9998,2 49742  53.2157 157.8286 0002346  42.1168 318.0004 15.08842143 53645,6917.874,95.437,541.362,538.116,0.0
49742.0,STARLINK-3202,PAYLOAD,2022-11-21 06:05:43,15.08833314,0.0002356,53.2157,156.0442,43.4999,316.6178,1.0573e-05,-1.2e-06,0.0,0 STARLINK-3202,1 49742U 21115U   22325.25397903 -.00000120  00000-0  10573-4 0  9992,2 49742  53.2157 156.0442 0002356  43.4999 316.6178 15.08833314 54813,6917.901,95.438,541.396,538.136,0.0
